NORAD_CAT_ID,OBJECT_NAME,OBJECT_TYPE,EPOCH,MEAN_MOTION,ECCENTRICITY,INCLINATION,RA_OF_ASC_NODE,ARG_OF_PERICENTER,MEAN_ANOMALY,BSTAR,MEAN_MOTION_DOT,MEAN_MOTION_DDOT,TLE_LINE0,TLE_LINE1,TLE_LINE2,SEMIMAJOR_AXIS,PERIOD,APOGEE,PERIGEE,DECAYED
53745.0,STARLINK-4656,PAYLOAD,2024-01-22 12:12:09,15.08838437,0.0001673,53.2168,153.1448,118.1258,241.9903,8.4539e-05,1.058e-05,0.0,0 STARLINK-4656,1 53745U 22107AX  24022.50843874  .00001058  00000-0  84539-4 0  9992,2 53745  53.2168 153.1448 0001673 118.1258 241.9903 15.08838437 76480,6917.885,95.438,540.908,538.593,0.0
53745.0,STARLINK-4656,PAYLOAD,2024-01-22 15:22:55,15.08838187,0.0001235,53.2169,152.5558,83.8056,276.3077,6.0357e-05,6.73e-06,0.0,0 STARLINK-4656,1 53745U 22107AX  24022.64092182  .00000673  00000-0  60357-4 0  9999,2 53745  53.2169 152.5558 0001235  83.8056 276.3077 15.08838187 77289,6917.886,95.438,540.605,538.897,0.0
53745.0,STARLINK-4656,PAYLOAD,2024-01-23 15:13:42,15.08851999,0.0001434,53.2174,148.0948,77.5158,282.5995,2.3266e-05,8.2e-07,0.0,0 STARLINK-4656,1 53745U 22107AX  24023.63451468  .00000082  00000-0  23266-4 0  9997,2 53745  53.2174 148.0948 0001434  77.5158 282.5995 15.08851999 76656,6917.844,95.437,540.701,538.717,0.0
53745.0,STARLINK-4656,PAYLOAD,2024-01-24 11:53:44,15.08833529,0.0001467,53.2175,144.229,98.8758,261.24,3.2335e-05,2.27e-06,0.0,0 STARLINK-4656,1 53745U 22107AX  24024.49564823  .00000227  00000-0  32335-4 0  9990,2 53745  53.2175 144.2290 0001467  98.8758 261.2400 15.08833529 76781,6917.9,95.438,540.78,538.75,0.0
53745.0,STARLINK-4656,PAYLOAD,2024-01-24 13:29:07,15.08834243,0.0001498,53.2175,143.9311,104.8897,255.2261,3.2281e-05,2.26e-06,0.0,0 STARLINK-4656,1 53745U 22107AX  24024.56188780  .00000226  00000-0  32281-4 0  9991,2 53745  53.2175 143.9311 0001498 104.8897 255.2261 15.08834243 77577,6917.898,95.438,540.799,538.727,0.0
53745.0,STARLINK-4656,PAYLOAD,2024-01-25 13:19:54,15.08838697,0.000158,53.2173,139.4708,101.2877,258.8293,-1.7824e-05,-5.72e-06,0.0,0 STARLINK-4656,1 53745U 22107AX  24025.55549109 -.00000572  00000-0 -17824-4 0  9999,2 53745  53.2173 139.4708 0001580 101.2877 258.8293 15.08838697 77724,6917.884,95.438,540.842,538.656,0.0
53745.0,STARLINK-4656,PAYLOAD,2024-01-25 14:55:17,15.08841564,0.0001473,53.2171,139.1743,86.7665,273.3495,-1.6241e-05,-5.46e-06,0.0,0 STARLINK-4656,1 53745U 22107AX  24025.62173013 -.00000546  00000-0 -16241-4 0  9997,2 53745  53.2171 139.1743 0001473  86.7665 273.3495 15.08841564 76958,6917.876,95.437,540.76,538.722,0.0
53745.0,STARLINK-4656,PAYLOAD,2024-01-26 11:35:16,15.08857449,0.000142,53.2168,135.3093,111.7218,248.3925,0.00025695,3.806e-05,0.0,0 STARLINK-4656,1 53745U 22107AX  24026.48282662  .00003806  00000-0  25695-3 0  9995,2 53745  53.2168 135.3093 0001420 111.7218 248.3925 15.08857449 77089,6917.827,95.436,540.674,538.71,0.0
53745.0,STARLINK-4656,PAYLOAD,2024-01-26 14:46:04,15.08828643,0.0001258,53.217,134.7167,88.426,271.6876,1.6989e-05,-1.8e-07,0.0,0 STARLINK-4656,1 53745U 22107AX  24026.61532980 -.00000018  00000-0  16989-4 0  9991,2 53745  53.2170 134.7167 0001258  88.4260 271.6876 15.08828643 77889,6917.915,95.438,540.65,538.91,0.0
53745.0,STARLINK-4656,PAYLOAD,2024-01-27 13:01:28,15.08834896,0.0001366,53.2167,130.5573,76.2065,283.9079,-2.0982e-05,-6.22e-06,0.0,0 STARLINK-4656,1 53745U 22107AX  24027.54269323 -.00000622  00000-0 -20982-4 0  9992,2 53745  53.2167 130.5573 0001366  76.2065 283.9079 15.08834896 78023,6917.896,95.438,540.706,538.816,0.0
53745.0,STARLINK-4656,PAYLOAD,2024-01-27 16:12:14,15.08841502,0.0001423,53.219,129.9478,99.8182,260.2971,-4.3828e-05,-9.85e-06,0.0,0 STARLINK-4656,1 53745U 22107AX  24027.67516798 -.00000985  00000-0 -43828-4 0  9993,2 53745  53.2190 129.9478 0001423  99.8182 260.2971 15.08841502 77266,6917.876,95.437,540.725,538.756,0.0
53745.0,STARLINK-4656,PAYLOAD,2024-01-28 12:52:15,15.08832075,0.0001475,53.2187,126.0922,107.0108,253.1046,0.00015643,2.202e-05,0.0,0 STARLINK-4656,1 53745U 22107AX  24028.53628723  .00002202  00000-0  15643-3 0  9996,2 53745  53.2187 126.0922 0001475 107.0108 253.1046 15.08832075 78171,6917.905,95.438,540.79,538.749,0.0
53745.0,STARLINK-4656,PAYLOAD,2024-01-29 11:07:38,15.0884788,0.0001577,53.2183,121.9292,109.9156,250.2006,0.00014968,2.095e-05,0.0,0 STARLINK-4656,1 53745U 22107AX  24029.46364026  .00002095  00000-0  14968-3 0  9991,2 53745  53.2183 121.9292 0001577 109.9156 250.2006 15.08847880 77531,6917.856,95.437,540.812,538.63,0.0
53745.0,STARLINK-4656,PAYLOAD,2024-01-29 15:53:47,15.08857232,0.0001472,53.2174,121.0355,117.2855,242.8287,0.00011454,1.536e-05,0.0,0 STARLINK-4656,1 53745U 22107AX  24029.66235383  .00001536  00000-0  11454-3 0  9992,2 53745  53.2174 121.0355 0001472 117.2855 242.8287 15.08857232 77567,6917.828,95.436,540.711,538.674,0.0
53745.0,STARLINK-4656,PAYLOAD,2024-01-30 10:58:26,15.08839438,0.0001922,53.2168,117.4602,136.8681,223.2462,-4.0341e-05,-9.3e-06,0.0,0 STARLINK-4656,1 53745U 22107AX  24030.45724882 -.00000930  00000-0 -40341-4 0  9995,2 53745  53.2168 117.4602 0001922 136.8681 223.2462 15.08839438 77687,6917.882,95.438,541.077,538.417,0.0
53745.0,STARLINK-4656,PAYLOAD,2024-01-30 12:33:49,15.08835144,0.0001386,53.2178,117.1703,104.7519,255.3627,-1.84e-05,-5.81e-06,0.0,0 STARLINK-4656,1 53745U 22107AX  24030.52349359 -.00000581  00000-0 -18400-4 0  9998,2 53745  53.2178 117.1703 0001386 104.7519 255.3627 15.08835144 78472,6917.895,95.438,540.719,538.801,0.0
53745.0,STARLINK-4656,PAYLOAD,2024-01-31 12:24:36,15.0884659,0.0001467,53.218,112.7103,105.6878,254.4276,-2.7679e-05,-7.29e-06,0.0,0 STARLINK-4656,1 53745U 22107AX  24031.51708823 -.00000729  00000-0 -27679-4 0  9995,2 53745  53.2180 112.7103 0001467 105.6878 254.4276 15.08846590 77845,6917.86,95.437,540.74,538.71,0.0
53745.0,STARLINK-4656,PAYLOAD,2024-02-01 10:40:01,15.0882934,0.0001501,53.2177,108.5474,100.3076,259.8085,7.9862e-05,9.83e-06,0.0,0 STARLINK-4656,1 53745U 22107AX  24032.44446003  .00000983  00000-0  79862-4 0  9998,2 53745  53.2177 108.5474 0001501 100.3076 259.8085 15.08829340 77982,6917.913,95.438,540.816,538.74,0.0
53745.0,STARLINK-4656,PAYLOAD,2024-02-01 13:50:47,15.08834563,0.0001467,53.218,107.9507,93.2601,266.8559,0.00010428,1.372e-05,0.0,0 STARLINK-4656,1 53745U 22107AX  24032.57693708  .00001372  00000-0  10428-3 0  9993,2 53745  53.2180 107.9507 0001467  93.2601 266.8559 15.08834563 78787,6917.897,95.438,540.777,538.747,0.0
53745.0,STARLINK-4656,PAYLOAD,2024-02-02 12:06:10,15.0885122,0.0001951,53.2181,103.7875,83.9624,276.159,2.9111e-05,1.75e-06,0.0,0 STARLINK-4656,1 53745U 22107AX  24033.50429121  .00000175  00000-0  29111-4 0  9993,2 53745  53.2181 103.7875 0001951  83.9624 276.1590 15.08851220 78147,6917.846,95.437,541.061,538.361,0.0
53745.0,STARLINK-4656,PAYLOAD,2024-02-03 04:00:02,15.08809125,0.0001845,53.2179,100.8218,78.0105,282.1093,0.00050848,7.807e-05,0.0,0 STARLINK-4656,1 53745U 22107AX  24034.16669900  .00007807  00000-0  50848-3 0  9996,2 53745  53.2179 100.8218 0001845  78.0105 282.1093 15.08809125 78247,6917.975,95.44,541.116,538.563,0.0
53745.0,STARLINK-4656,PAYLOAD,2024-02-03 13:32:21,15.0884723,0.0001547,53.2173,99.0318,87.5172,272.5997,9.0324e-05,1.15e-05,0.0,0 STARLINK-4656,1 53745U 22107AX  24034.56413293  .00001150  00000-0  90324-4 0  9991,2 53745  53.2173  99.0318 0001547  87.5172 272.5997 15.08847230 79087,6917.858,95.437,540.793,538.653,0.0
53745.0,STARLINK-4656,PAYLOAD,2024-02-04 03:50:49,15.08843191,0.0001546,53.2169,96.3557,97.2222,262.8946,-1.1843e-05,-4.77e-06,0.0,0 STARLINK-4656,1 53745U 22107AX  24035.16029756 -.00000477  00000-0 -11843-4 0  9997,2 53745  53.2169  96.3557 0001546  97.2222 262.8946 15.08843191 78391,6917.871,95.437,540.805,538.666,0.0
53745.0,STARLINK-4656,PAYLOAD,2024-02-04 10:12:22,15.08847166,0.0001613,53.2173,95.1668,92.4051,267.7126,-1.9588e-06,-3.19e-06,0.0,0 STARLINK-4656,1 53745U 22107AX  24035.42525522 -.00000319  00000-0 -19588-5 0  9998,2 53745  53.2173  95.1668 0001613  92.4051 267.7126 15.08847166 79210,6917.858,95.437,540.839,538.608,0.0
53745.0,STARLINK-4656,PAYLOAD,2024-02-05 10:03:08,15.08839769,0.0001624,53.2171,90.7063,100.2183,259.8992,0.00014016,1.943e-05,0.0,0 STARLINK-4656,1 53745U 22107AX  24036.41885412  .00001943  00000-0  14016-3 0  9996,2 53745  53.2171  90.7063 0001624 100.2183 259.8992 15.08839769 78586,6917.881,95.438,540.87,538.623,0.0
53745.0,STARLINK-4656,PAYLOAD,2024-02-06 03:32:24,15.08840133,0.0001933,53.2172,87.4334,108.8449,251.2753,-6.139e-05,-1.265e-05,0.0,0 STARLINK-4656,1 53745U 22107AX  24037.14750030 -.00001265  00000-0 -61390-4 0  9991,2 53745  53.2172  87.4334 0001933 108.8449 251.2753 15.08840133 78693,6917.88,95.438,541.082,538.408,0.0
53745.0,STARLINK-4656,PAYLOAD,2024-02-06 09:53:56,15.08838483,0.0001761,53.2175,86.2443,104.966,255.1527,-2.4613e-06,-3.27e-06,0.0,0 STARLINK-4656,1 53745U 22107AX  24037.41245961 -.00000327  00000-0 -24613-5 0  9999,2 53745  53.2175  86.2443 0001761 104.9660 255.1527 15.08838483 79514,6917.885,95.438,540.968,538.532,0.0
53745.0,STARLINK-4656,PAYLOAD,2024-02-07 09:44:43,15.08844061,0.0001582,53.2179,81.7872,97.1236,262.9936,5.4096e-05,5.73e-06,0.0,0 STARLINK-4656,1 53745U 22107AX  24038.40605747  .00000573  00000-0  54096-4 0  9999,2 53745  53.2179  81.7872 0001582  97.1236 262.9936 15.08844061 78885,6917.868,95.437,540.827,538.639,0.0
53745.0,STARLINK-4656,PAYLOAD,2024-02-07 19:17:02,15.08842306,0.0001453,53.2166,80.0007,87.4918,272.624,5.1734e-06,-2.06e-06,0.0,0 STARLINK-4656,1 53745U 22107AX  24038.80349928 -.00000206  00000-0  51734-5 0  9990,2 53745  53.2166  80.0007 0001453  87.4918 272.6240 15.08842306 79729,6917.873,95.437,540.744,538.733,0.0
53745.0,STARLINK-4656,PAYLOAD,2024-02-08 09:35:30,15.08839659,0.0001683,53.2179,77.3273,89.5276,270.5909,0.00010929,1.452e-05,0.0,0 STARLINK-4656,1 53745U 22107AX  24039.39965965  .00001452  00000-0  10929-3 0  9992,2 53745  53.2179  77.3273 0001683  89.5276 270.5909 15.08839659 79032,6917.881,95.438,540.911,538.582,0.0
